<?xml version='1.0' encoding='utf-8'?>
<q:quakeml xmlns:q="http://quakeml.org/xmlns/quakeml/1.2" xmlns:catalog="http://anss.org/xmlns/catalog/0.1" xmlns:css="http://www.seismo.unr.edu/schema/css3.0" xmlns="http://quakeml.org/xmlns/bed/1.2">
  <eventParameters publicID="quakeml:www.seismo.unr.edu/Catalog/520476">
    <creationInfo>
      <agencyID>NN</agencyID>
      <creationTime>2015-11-27T14:48:24.459475Z</creationTime>
      <version>520476</version>
    </creationInfo>
    <event publicID="quakeml:www.seismo.unr.edu/Events/main.php?evid=520476" catalog:eventid="00520476" catalog:dataid="nn00520476" catalog:eventsource="nn" catalog:datasource="nn">
      <preferredOriginID>quakeml:www.seismo.unr.edu/Origin/1361361</preferredOriginID>
      <preferredMagnitudeID>quakeml:www.seismo.unr.edu/Magnitude/ml/293041</preferredMagnitudeID>
      <type>earthquake</type>
      <description>
        <text>12.4 km SE of Lida_Junct., NV</text>
        <type>nearest cities</type>
      </description>
      <creationInfo>
        <agencyID>NN</agencyID>
        <author>BRTT:ken</author>
        <creationTime>2015-11-27T14:46:29.806830Z</creationTime>
        <version>520476</version>
      </creationInfo>
      <origin publicID="quakeml:www.seismo.unr.edu/Origin/1361361">
        <time>
          <value>2015-11-27T13:52:29.418610Z</value>
          <uncertainty>0.13</uncertainty>
        </time>
        <latitude>
          <value>37.4176</value>
          <uncertainty>0.0106</uncertainty>
        </latitude>
        <longitude>
          <value>-117.0948</value>
          <uncertainty>0.0087</uncertainty>
        </longitude>
        <depth>
          <value>13900.0</value>
          <uncertainty>2800.0</uncertainty>
        </depth>
        <quality>
          <associatedPhaseCount>60</associatedPhaseCount>
          <usedPhaseCount>29</usedPhaseCount>
          <associatedStationCount>51</associatedStationCount>
          <usedStationCount>22</usedStationCount>
          <standardError>0.2283</standardError>
          <azimuthalGap>60.21</azimuthalGap>
          <minimumDistance>0.404</minimumDistance>
          <maximumDistance>2.746</maximumDistance>
          <medianDistance>1.027</medianDistance>
        </quality>
        <evaluationMode>manual</evaluationMode>
        <evaluationStatus>reviewed</evaluationStatus>
        <creationInfo>
          <agencyID>NN</agencyID>
          <author>BRTT:ken</author>
          <creationTime>2015-11-27T14:46:29.806830Z</creationTime>
          <version>1361361</version>
        </creationInfo>
        <originUncertainty>
          <preferredDescription>horizontal uncertainty</preferredDescription>
          <horizontalUncertainty>1230.0</horizontalUncertainty>
          <minHorizontalUncertainty>760.0</minHorizontalUncertainty>
          <maxHorizontalUncertainty>1230.0</maxHorizontalUncertainty>
          <azimuthMaxHorizontalUncertainty>14.13</azimuthMaxHorizontalUncertainty>
          <confidenceLevel>90.0</confidenceLevel>
        </originUncertainty>
        <arrival publicID="quakeml:www.seismo.unr.edu/Arrival/6955679">
          <pickID>quakeml:www.seismo.unr.edu/Pick/6955679</pickID>
          <phase>P</phase>
          <azimuth>132.55</azimuth>
          <distance>0.404</distance>
          <timeResidual>0.098</timeResidual>
          <timeWeight>1.0</timeWeight>
          <earthModelID>smi:www.seismo.unr.edu/VelocityModel/pickema2</earthModelID>
          <creationInfo>
            <agencyID>NN</agencyID>
            <creationTime>2015-11-27T14:46:11.903430Z</creationTime>
            <version>6955679</version>
          </creationInfo>
          <css:timedef>d</css:timedef>
        </arrival>
        <arrival publicID="quakeml:www.seismo.unr.edu/Arrival/6955680">
          <pickID>quakeml:www.seismo.unr.edu/Pick/6955680</pickID>
          <phase>S</phase>
          <azimuth>132.55</azimuth>
          <distance>0.404</distance>
          <timeResidual>-0.156</timeResidual>
          <timeWeight>1.0</timeWeight>
          <earthModelID>smi:www.seismo.unr.edu/VelocityModel/pickema2</earthModelID>
          <creationInfo>
            <agencyID>NN</agencyID>
            <creationTime>2015-11-27T14:46:11.921440Z</creationTime>
            <version>6955680</version>
          </creationInfo>
          <css:timedef>d</css:timedef>
        </arrival>
        <arrival publicID="quakeml:www.seismo.unr.edu/Arrival/6955648">
          <pickID>quakeml:www.seismo.unr.edu/Pick/6955648</pickID>
          <phase>P</phase>
          <azimuth>173.62</azimuth>
          <distance>0.44</distance>
          <timeResidual>0.139</timeResidual>
          <timeWeight>1.0</timeWeight>
          <earthModelID>smi:www.seismo.unr.edu/VelocityModel/pickema2</earthModelID>
          <creationInfo>
            <agencyID>NN</agencyID>
            <creationTime>2015-11-27T14:46:11.939390Z</creationTime>
            <version>6955648</version>
          </creationInfo>
          <css:timedef>d</css:timedef>
        </arrival>
        <arrival publicID="quakeml:www.seismo.unr.edu/Arrival/6955681">
          <pickID>quakeml:www.seismo.unr.edu/Pick/6955681</pickID>
          <phase>S</phase>
          <azimuth>173.62</azimuth>
          <distance>0.44</distance>
          <timeResidual>-0.181</timeResidual>
          <timeWeight>1.0</timeWeight>
          <earthModelID>smi:www.seismo.unr.edu/VelocityModel/pickema2</earthModelID>
          <creationInfo>
            <agencyID>NN</agencyID>
            <creationTime>2015-11-27T14:46:11.951390Z</creationTime>
            <version>6955681</version>
          </creationInfo>
          <css:timedef>d</css:timedef>
        </arrival>
        <arrival publicID="quakeml:www.seismo.unr.edu/Arrival/6955626">
          <pickID>quakeml:www.seismo.unr.edu/Pick/6955626</pickID>
          <phase>P</phase>
          <azimuth>247.31</azimuth>
          <distance>0.476</distance>
          <timeResidual>0.288</timeResidual>
          <timeWeight>1.0</timeWeight>
          <earthModelID>smi:www.seismo.unr.edu/VelocityModel/pickema2</earthModelID>
          <creationInfo>
            <agencyID>NN</agencyID>
            <creationTime>2015-11-27T14:46:11.963410Z</creationTime>
            <version>6955626</version>
          </creationInfo>
          <css:timedef>d</css:timedef>
        </arrival>
        <arrival publicID="quakeml:www.seismo.unr.edu/Arrival/6955682">
          <pickID>quakeml:www.seismo.unr.edu/Pick/6955682</pickID>
          <phase>S</phase>
          <azimuth>247.31</azimuth>
          <distance>0.476</distance>
          <timeResidual>0.17</timeResidual>
          <timeWeight>1.0</timeWeight>
          <earthModelID>smi:www.seismo.unr.edu/VelocityModel/pickema2</earthModelID>
          <creationInfo>
            <agencyID>NN</agencyID>
            <creationTime>2015-11-27T14:46:11.977960Z</creationTime>
            <version>6955682</version>
          </creationInfo>
          <css:timedef>d</css:timedef>
        </arrival>
        <arrival publicID="quakeml:www.seismo.unr.edu/Arrival/6955651">
          <pickID>quakeml:www.seismo.unr.edu/Pick/6955651</pickID>
          <phase>P</phase>
          <azimuth>103.11</azimuth>
          <distance>0.538</distance>
          <timeResidual>0.49</timeResidual>
          <timeWeight>1.0</timeWeight>
          <earthModelID>smi:www.seismo.unr.edu/VelocityModel/pickema2</earthModelID>
          <creationInfo>
            <agencyID>NN</agencyID>
            <creationTime>2015-11-27T14:46:11.993370Z</creationTime>
            <version>6955651</version>
          </creationInfo>
          <css:timedef>d</css:timedef>
        </arrival>
        <arrival publicID="quakeml:www.seismo.unr.edu/Arrival/6955683">
          <pickID>quakeml:www.seismo.unr.edu/Pick/6955683</pickID>
          <phase>S</phase>
          <azimuth>103.11</azimuth>
          <distance>0.538</distance>
          <timeResidual>0.472</timeResidual>
          <timeWeight>1.0</timeWeight>
          <earthModelID>smi:www.seismo.unr.edu/VelocityModel/pickema2</earthModelID>
          <creationInfo>
            <agencyID>NN</agencyID>
            <creationTime>2015-11-27T14:46:12.005340Z</creationTime>
            <version>6955683</version>
          </creationInfo>
          <css:timedef>d</css:timedef>
        </arrival>
        <arrival publicID="quakeml:www.seismo.unr.edu/Arrival/6955615">
          <pickID>quakeml:www.seismo.unr.edu/Pick/6955615</pickID>
          <phase>P</phase>
          <azimuth>134.82</azimuth>
          <distance>0.594</distance>
          <timeResidual>0.127</timeResidual>
          <timeWeight>1.0</timeWeight>
          <earthModelID>smi:www.seismo.unr.edu/VelocityModel/pickema2</earthModelID>
          <creationInfo>
            <agencyID>NN</agencyID>
            <creationTime>2015-11-27T14:46:12.017370Z</creationTime>
            <version>6955615</version>
          </creationInfo>
          <css:timedef>d</css:timedef>
        </arrival>
        <arrival publicID="quakeml:www.seismo.unr.edu/Arrival/6955652">
          <pickID>quakeml:www.seismo.unr.edu/Pick/6955652</pickID>
          <phase>P</phase>
          <azimuth>125.03</azimuth>
          <distance>0.609</distance>
          <timeResidual>0.148</timeResidual>
          <timeWeight>1.0</timeWeight>
          <earthModelID>smi:www.seismo.unr.edu/VelocityModel/pickema2</earthModelID>
          <creationInfo>
            <agencyID>NN</agencyID>
            <creationTime>2015-11-27T14:46:12.029320Z</creationTime>
            <version>6955652</version>
          </creationInfo>
          <css:timedef>d</css:timedef>
        </arrival>
        <arrival publicID="quakeml:www.seismo.unr.edu/Arrival/6955619">
          <pickID>quakeml:www.seismo.unr.edu/Pick/6955619</pickID>
          <phase>P</phase>
          <azimuth>108.56</azimuth>
          <distance>0.642</distance>
          <timeResidual>0.456</timeResidual>
          <timeWeight>1.0</timeWeight>
          <earthModelID>smi:www.seismo.unr.edu/VelocityModel/pickema2</earthModelID>
          <creationInfo>
            <agencyID>NN</agencyID>
            <creationTime>2015-11-27T14:46:12.041310Z</creationTime>
            <version>6955619</version>
          </creationInfo>
          <css:timedef>d</css:timedef>
        </arrival>
        <arrival publicID="quakeml:www.seismo.unr.edu/Arrival/6955654">
          <pickID>quakeml:www.seismo.unr.edu/Pick/6955654</pickID>
          <phase>P</phase>
          <azimuth>351.31</azimuth>
          <distance>0.665</distance>
          <timeResidual>-0.013</timeResidual>
          <timeWeight>1.0</timeWeight>
          <earthModelID>smi:www.seismo.unr.edu/VelocityModel/pickema2</earthModelID>
          <creationInfo>
            <agencyID>NN</agencyID>
            <creationTime>2015-11-27T14:46:12.053290Z</creationTime>
            <version>6955654</version>
          </creationInfo>
          <css:timedef>d</css:timedef>
        </arrival>
        <arrival publicID="quakeml:www.seismo.unr.edu/Arrival/6955684">
          <pickID>quakeml:www.seismo.unr.edu/Pick/6955684</pickID>
          <phase>S</phase>
          <azimuth>351.31</azimuth>
          <distance>0.665</distance>
          <timeResidual>-0.311</timeResidual>
          <timeWeight>1.0</timeWeight>
          <earthModelID>smi:www.seismo.unr.edu/VelocityModel/pickema2</earthModelID>
          <creationInfo>
            <agencyID>NN</agencyID>
            <creationTime>2015-11-27T14:46:12.065320Z</creationTime>
            <version>6955684</version>
          </creationInfo>
          <css:timedef>d</css:timedef>
        </arrival>
        <arrival publicID="quakeml:www.seismo.unr.edu/Arrival/6955617">
          <pickID>quakeml:www.seismo.unr.edu/Pick/6955617</pickID>
          <phase>P</phase>
          <azimuth>127.07</azimuth>
          <distance>0.686</distance>
          <timeResidual>0.169</timeResidual>
          <timeWeight>1.0</timeWeight>
          <earthModelID>smi:www.seismo.unr.edu/VelocityModel/pickema2</earthModelID>
          <creationInfo>
            <agencyID>NN</agencyID>
            <creationTime>2015-11-27T14:46:12.095770Z</creationTime>
            <version>6955617</version>
          </creationInfo>
          <css:timedef>d</css:timedef>
        </arrival>
        <arrival publicID="quakeml:www.seismo.unr.edu/Arrival/6955622">
          <pickID>quakeml:www.seismo.unr.edu/Pick/6955622</pickID>
          <phase>P</phase>
          <azimuth>172.17</azimuth>
          <distance>0.7</distance>
          <timeResidual>-0.104</timeResidual>
          <timeWeight>1.0</timeWeight>
          <earthModelID>smi:www.seismo.unr.edu/VelocityModel/pickema2</earthModelID>
          <creationInfo>
            <agencyID>NN</agencyID>
            <creationTime>2015-11-27T14:46:12.107840Z</creationTime>
            <version>6955622</version>
          </creationInfo>
          <css:timedef>d</css:timedef>
        </arrival>
        <arrival publicID="quakeml:www.seismo.unr.edu/Arrival/6955686">
          <pickID>quakeml:www.seismo.unr.edu/Pick/6955686</pickID>
          <phase>S</phase>
          <azimuth>172.17</azimuth>
          <distance>0.7</distance>
          <timeResidual>-0.931</timeResidual>
          <timeWeight>0.0</timeWeight>
          <earthModelID>smi:www.seismo.unr.edu/VelocityModel/pickema2</earthModelID>
          <creationInfo>
            <agencyID>NN</agencyID>
            <creationTime>2015-11-27T14:46:12.125390Z</creationTime>
            <version>6955686</version>
          </creationInfo>
          <css:timedef>n</css:timedef>
        </arrival>
        <arrival publicID="quakeml:www.seismo.unr.edu/Arrival/6955618">
          <pickID>quakeml:www.seismo.unr.edu/Pick/6955618</pickID>
          <phase>P</phase>
          <azimuth>266.2</azimuth>
          <distance>0.699</distance>
          <timeResidual>0.165</timeResidual>
          <timeWeight>1.0</timeWeight>
          <earthModelID>smi:www.seismo.unr.edu/VelocityModel/pickema2</earthModelID>
          <creationInfo>
            <agencyID>NN</agencyID>
            <creationTime>2015-11-27T14:46:12.143240Z</creationTime>
            <version>6955618</version>
          </creationInfo>
          <css:timedef>d</css:timedef>
        </arrival>
        <arrival publicID="quakeml:www.seismo.unr.edu/Arrival/6955687">
          <pickID>quakeml:www.seismo.unr.edu/Pick/6955687</pickID>
          <phase>S</phase>
          <azimuth>266.2</azimuth>
          <distance>0.699</distance>
          <timeResidual>-0.314</timeResidual>
          <timeWeight>1.0</timeWeight>
          <earthModelID>smi:www.seismo.unr.edu/VelocityModel/pickema2</earthModelID>
          <creationInfo>
            <agencyID>NN</agencyID>
            <creationTime>2015-11-27T14:46:12.167230Z</creationTime>
            <version>6955687</version>
          </creationInfo>
          <css:timedef>d</css:timedef>
        </arrival>
        <arrival publicID="quakeml:www.seismo.unr.edu/Arrival/6955685">
          <pickID>quakeml:www.seismo.unr.edu/Pick/6955685</pickID>
          <phase>P</phase>
          <azimuth>149.0</azimuth>
          <distance>0.728</distance>
          <timeResidual>-0.069</timeResidual>
          <timeWeight>1.0</timeWeight>
          <earthModelID>smi:www.seismo.unr.edu/VelocityModel/pickema2</earthModelID>
          <creationInfo>
            <agencyID>NN</agencyID>
            <creationTime>2015-11-27T14:46:12.179200Z</creationTime>
            <version>6955685</version>
          </creationInfo>
          <css:timedef>d</css:timedef>
        </arrival>
        <arrival publicID="quakeml:www.seismo.unr.edu/Arrival/6955656">
          <pickID>quakeml:www.seismo.unr.edu/Pick/6955656</pickID>
          <phase>P</phase>
          <azimuth>105.12</azimuth>
          <distance>0.801</distance>
          <timeResidual>-0.05</timeResidual>
          <timeWeight>1.0</timeWeight>
          <earthModelID>smi:www.seismo.unr.edu/VelocityModel/pickema2</earthModelID>
          <creationInfo>
            <agencyID>NN</agencyID>
            <creationTime>2015-11-27T14:46:12.191170Z</creationTime>
            <version>6955656</version>
          </creationInfo>
          <css:timedef>d</css:timedef>
        </arrival>
        <arrival publicID="quakeml:www.seismo.unr.edu/Arrival/6955688">
          <pickID>quakeml:www.seismo.unr.edu/Pick/6955688</pickID>
          <phase>S</phase>
          <azimuth>105.12</azimuth>
          <distance>0.801</distance>
          <timeResidual>-0.477</timeResidual>
          <timeWeight>1.0</timeWeight>
          <earthModelID>smi:www.seismo.unr.edu/VelocityModel/pickema2</earthModelID>
          <creationInfo>
            <agencyID>NN</agencyID>
            <creationTime>2015-11-27T14:46:12.203160Z</creationTime>
            <version>6955688</version>
          </creationInfo>
          <css:timedef>d</css:timedef>
        </arrival>
        <arrival publicID="quakeml:www.seismo.unr.edu/Arrival/6955690">
          <pickID>quakeml:www.seismo.unr.edu/Pick/6955690</pickID>
          <phase>P</phase>
          <azimuth>116.05</azimuth>
          <distance>0.827</distance>
          <timeResidual>-0.149</timeResidual>
          <timeWeight>1.0</timeWeight>
          <earthModelID>smi:www.seismo.unr.edu/VelocityModel/pickema2</earthModelID>
          <creationInfo>
            <agencyID>NN</agencyID>
            <creationTime>2015-11-27T14:46:12.215210Z</creationTime>
            <version>6955690</version>
          </creationInfo>
          <css:timedef>d</css:timedef>
        </arrival>
        <arrival publicID="quakeml:www.seismo.unr.edu/Arrival/6955689">
          <pickID>quakeml:www.seismo.unr.edu/Pick/6955689</pickID>
          <phase>P</phase>
          <azimuth>113.55</azimuth>
          <distance>0.827</distance>
          <timeResidual>-0.063</timeResidual>
          <timeWeight>1.0</timeWeight>
          <earthModelID>smi:www.seismo.unr.edu/VelocityModel/pickema2</earthModelID>
          <creationInfo>
            <agencyID>NN</agencyID>
            <creationTime>2015-11-27T14:46:12.227180Z</creationTime>
            <version>6955689</version>
          </creationInfo>
          <css:timedef>d</css:timedef>
        </arrival>
        <arrival publicID="quakeml:www.seismo.unr.edu/Arrival/6955691">
          <pickID>quakeml:www.seismo.unr.edu/Pick/6955691</pickID>
          <phase>P</phase>
          <azimuth>111.06</azimuth>
          <distance>0.829</distance>
          <timeResidual>0.089</timeResidual>
          <timeWeight>1.0</timeWeight>
          <earthModelID>smi:www.seismo.unr.edu/VelocityModel/pickema2</earthModelID>
          <creationInfo>
            <agencyID>NN</agencyID>
            <creationTime>2015-11-27T14:46:12.239180Z</creationTime>
            <version>6955691</version>
          </creationInfo>
          <css:timedef>d</css:timedef>
        </arrival>
        <arrival publicID="quakeml:www.seismo.unr.edu/Arrival/6955625">
          <pickID>quakeml:www.seismo.unr.edu/Pick/6955625</pickID>
          <phase>P</phase>
          <azimuth>108.58</azimuth>
          <distance>0.832</distance>
          <timeResidual>0.006</timeResidual>
          <timeWeight>1.0</timeWeight>
          <earthModelID>smi:www.seismo.unr.edu/VelocityModel/pickema2</earthModelID>
          <creationInfo>
            <agencyID>NN</agencyID>
            <creationTime>2015-11-27T14:46:12.275100Z</creationTime>
            <version>6955625</version>
          </creationInfo>
          <css:timedef>d</css:timedef>
        </arrival>
        <arrival publicID="quakeml:www.seismo.unr.edu/Arrival/6955692">
          <pickID>quakeml:www.seismo.unr.edu/Pick/6955692</pickID>
          <phase>P</phase>
          <azimuth>105.23</azimuth>
          <distance>0.839</distance>
          <timeResidual>-0.157</timeResidual>
          <timeWeight>1.0</timeWeight>
          <earthModelID>smi:www.seismo.unr.edu/VelocityModel/pickema2</earthModelID>
